start=new Date('2021-12-24T00:00:00.000Z').valueOf();
sats=[{"MEAN_ELEMENT_THEORY":"SGP4","INCLINATION":"53.0530","PERIAPSIS":"545.425","GP_ID":"192325477","OBJECT_ID":"2021-041W","OBJECT_TYPE":"PAYLOAD","LAUNCH_DATE":"2021-05-15","TIME_SYSTEM":"UTC","REV_AT_EPOCH":"3356","PERIOD":"95.592","EPHEMERIS_TYPE":"0","ELEMENT_SET_NO":"999","TLE_LINE1":"1 48573U 21041W   21357.87421985 -.00001093  00000-0 -54427-4 0  9998","APOAPSIS":"549.011","RCS_SIZE":"LARGE","MEAN_MOTION_DDOT":"0.0000000000000","NORAD_CAT_ID":"48573","CENTER_NAME":"EARTH","BSTAR":"-0.00005442700000","OBJECT_NAME":"STARLINK-2224","SITE":"AFETR","ECCENTRICITY":"0.00025890","MEAN_MOTION_DOT":"-0.00001093","DECAY_DATE":null,"CLASSIFICATION_TYPE":"U","TLE_LINE2":"2 48573  53.0530 190.6468 0002589  79.5227 280.6053 15.06398578 33568","EPOCH":"2021-12-23T20:58:52.595040","COUNTRY_CODE":"US","MEAN_ANOMALY":"280.6053","SEMIMAJOR_AXIS":"6925.353","RA_OF_ASC_NODE":"190.6468","REF_FRAME":"TEME","ARG_OF_PERICENTER":"79.5227","MEAN_MOTION":"15.06398578","FILE":"3249421"},{"BSTAR":"0.00285680000000","OBJECT_NAME":"STARLINK-2225","TLE_LINE1":"1 48574U 21041X   21357.91667824  .00042486  00000-0  28568-2 0  9992","APOAPSIS":"548.965","RCS_SIZE":"LARGE","MEAN_MOTION_DDOT":"0.0000000000000","NORAD_CAT_ID":"48574","CENTER_NAME":"EARTH","TIME_SYSTEM":"UTC","REV_AT_EPOCH":"360","PERIOD":"95.595","EPHEMERIS_TYPE":"0","ELEMENT_SET_NO":"999","MEAN_ELEMENT_THEORY":"SGP4","INCLINATION":"53.0461","PERIAPSIS":"545.690","GP_ID":"192325710","OBJECT_TYPE":"PAYLOAD","OBJECT_ID":"2021-041X","LAUNCH_DATE":"2021-05-15","SEMIMAJOR_AXIS":"6925.463","MEAN_ANOMALY":"349.0604","RA_OF_ASC_NODE":"160.4905","REF_FRAME":"TEME","ARG_OF_PERICENTER":"91.5852","MEAN_MOTION":"15.06362806","FILE":"3249421","EPOCH":"2021-12-23T22:00:00.999936","COUNTRY_CODE":"US","ECCENTRICITY":"0.00023640","MEAN_MOTION_DOT":"0.00042486","DECAY_DATE":null,"CLASSIFICATION_TYPE":"U","TLE_LINE2":"2 48574  53.0461 160.4905 0002364  91.5852 349.0604 15.06362806  3601","SITE":"AFETR"},{"FILE":"3249421","MEAN_MOTION":"15.13602024","ARG_OF_PERICENTER":"42.8247","RA_OF_ASC_NODE":"150.5036","REF_FRAME":"TEME","MEAN_ANOMALY":"31.0648","SEMIMAJOR_AXIS":"6903.363","COUNTRY_CODE":"US","EPOCH":"2021-12-23T22:00:00.999936","TLE_LINE2":"2 48575  53.0544 150.5036 0001650  42.8247  31.0648 15.13602024  3651","CLASSIFICATION_TYPE":"U","DECAY_DATE":null,"MEAN_MOTION_DOT":"-0.01057547","ECCENTRICITY":"0.00016500","SITE":"AFETR","OBJECT_NAME":"STARLINK-2227","BSTAR":"-0.06279100000000","CENTER_NAME":"EARTH","NORAD_CAT_ID":"48575","MEAN_MOTION_DDOT":"0.0000000000000","APOAPSIS":"526.367","RCS_SIZE":"LARGE","TLE_LINE1":"1 48575U 21041Y   21357.91667824 -.01057547  00000-0 -62791-1 0  9995","ELEMENT_SET_NO":"999","EPHEMERIS_TYPE":"0","PERIOD":"95.137","REV_AT_EPOCH":"365","TIME_SYSTEM":"UTC","LAUNCH_DATE":"2021-05-15","OBJECT_ID":"2021-041Y","OBJECT_TYPE":"PAYLOAD","GP_ID":"192326867","PERIAPSIS":"524.089","INCLINATION":"53.0544","MEAN_ELEMENT_THEORY":"SGP4"},{"NORAD_CAT_ID":"48576","MEAN_MOTION_DDOT":"0.0000000000000","CENTER_NAME":"EARTH","TLE_LINE1":"1 48576U 21041Z   21357.91667824  .00043321  00000-0  29111-2 0  9998","APOAPSIS":"549.062","RCS_SIZE":"LARGE","BSTAR":"0.00291110000000","OBJECT_NAME":"STARLINK-2228","OBJECT_TYPE":"PAYLOAD","OBJECT_ID":"2021-041Z","GP_ID":"192326640","LAUNCH_DATE":"2021-05-15","INCLINATION":"53.0538","MEAN_ELEMENT_THEORY":"SGP4","PERIAPSIS":"545.503","ELEMENT_SET_NO":"999","REV_AT_EPOCH":"359","TIME_SYSTEM":"UTC","EPHEMERIS_TYPE":"0","PERIOD":"95.594","COUNTRY_CODE":"US","EPOCH":"2021-12-23T22:00:00.999936","ARG_OF_PERICENTER":"44.3879","FILE":"3249421","MEAN_MOTION":"15.06377505","SEMIMAJOR_AXIS":"6925.418","MEAN_ANOMALY":"263.6581","REF_FRAME":"TEME","RA_OF_ASC_NODE":"165.3727","SITE":"AFETR","TLE_LINE2":"2 48576  53.0538 165.3727 0002569  44.3879 263.6581 15.06377505  3591","MEAN_MOTION_DOT":"0.00043321","ECCENTRICITY":"0.00025690","CLASSIFICATION_TYPE":"U","DECAY_DATE":null},{"BSTAR":"-0.00002599400000","OBJECT_NAME":"STARLINK-2231","TLE_LINE1":"1 48577U 21041AA  21357.86685366 -.00000669  00000-0 -25994-4 0  9991","APOAPSIS":"549.031","RCS_SIZE":"LARGE","NORAD_CAT_ID":"48577","MEAN_MOTION_DDOT":"0.0000000000000","CENTER_NAME":"EARTH","REV_AT_EPOCH":"3356","TIME_SYSTEM":"UTC","EPHEMERIS_TYPE":"0","PERIOD":"95.593","ELEMENT_SET_NO":"999","MEAN_ELEMENT_THEORY":"SGP4","INCLINATION":"53.0528","PERIAPSIS":"545.457","OBJECT_ID":"2021-041AA","OBJECT_TYPE":"PAYLOAD","GP_ID":"192325952","LAUNCH_DATE":"2021-05-15","SEMIMAJOR_AXIS":"6925.379","MEAN_ANOMALY":"276.3088","REF_FRAME":"TEME","RA_OF_ASC_NODE":"190.6850","ARG_OF_PERICENTER":"83.8195","FILE":"3249421","MEAN_MOTION":"15.06390041","EPOCH":"2021-12-23T20:48:16.156224","COUNTRY_CODE":"US","MEAN_MOTION_DOT":"-0.00000669","ECCENTRICITY":"0.00025800","CLASSIFICATION_TYPE":"U","DECAY_DATE":null,"TLE_LINE2":"2 48577  53.0528 190.6850 0002580  83.8195 276.3088 15.06390041 33564","SITE":"AFETR"},{"PERIOD":"95.593","EPHEMERIS_TYPE":"0","TIME_SYSTEM":"UTC","REV_AT_EPOCH":"3356","ELEMENT_SET_NO":"999","PERIAPSIS":"545.410","INCLINATION":"53.0555","MEAN_ELEMENT_THEORY":"SGP4","LAUNCH_DATE":"2021-05-15","GP_ID":"192326185","OBJECT_TYPE":"PAYLOAD","OBJECT_ID":"2021-041AB","OBJECT_NAME":"STARLINK-2232","BSTAR":"0.00000392200000","RCS_SIZE":"LARGE","APOAPSIS":"549.082","TLE_LINE1":"1 48578U 21041AB  21357.84748020 -.00000224  00000-0  39220-5 0  9991","CENTER_NAME":"EARTH","MEAN_MOTION_DDOT":"0.0000000000000","NORAD_CAT_ID":"48578","DECAY_DATE":null,"CLASSIFICATION_TYPE":"U","ECCENTRICITY":"0.00026510","MEAN_MOTION_DOT":"-0.00000224","TLE_LINE2":"2 48578  53.0555 190.7695 0002651  82.6858 277.4432 15.06389281 33564","SITE":"AFETR","REF_FRAME":"TEME","RA_OF_ASC_NODE":"190.7695","MEAN_ANOMALY":"277.4432","SEMIMAJOR_AXIS":"6925.381","MEAN_MOTION":"15.06389281","FILE":"3249421","ARG_OF_PERICENTER":"82.6858","EPOCH":"2021-12-23T20:20:22.289280","COUNTRY_CODE":"US"},{"ECCENTRICITY":"0.00025070","MEAN_MOTION_DOT":"-0.00000351","DECAY_DATE":null,"CLASSIFICATION_TYPE":"U","TLE_LINE2":"2 48579  53.0552 190.4436 0002507  87.4388 272.6888 15.06393943 33576","SITE":"AFETR","SEMIMAJOR_AXIS":"6925.367","MEAN_ANOMALY":"272.6888","REF_FRAME":"TEME","RA_OF_ASC_NODE":"190.4436","ARG_OF_PERICENTER":"87.4388","MEAN_MOTION":"15.06393943","FILE":"3249421","EPOCH":"2021-12-23T22:07:52.610016","COUNTRY_CODE":"US","TIME_SYSTEM":"UTC","REV_AT_EPOCH":"3357","PERIOD":"95.593","EPHEMERIS_TYPE":"0","ELEMENT_SET_NO":"999","MEAN_ELEMENT_THEORY":"SGP4","INCLINATION":"53.0552","PERIAPSIS":"545.496","GP_ID":"192326411","OBJECT_ID":"2021-041AC","OBJECT_TYPE":"PAYLOAD","LAUNCH_DATE":"2021-05-15","BSTAR":"-0.00000460660000","OBJECT_NAME":"STARLINK-2233","TLE_LINE1":"1 48579U 21041AC  21357.92213669 -.00000351  00000-0 -46066-5 0  9995","APOAPSIS":"548.968","RCS_SIZE":"LARGE","MEAN_MOTION_DDOT":"0.0000000000000","NORAD_CAT_ID":"48579","CENTER_NAME":"EARTH"},{"GP_ID":"192327097","OBJECT_ID":"2021-041AD","OBJECT_TYPE":"PAYLOAD","LAUNCH_DATE":"2021-05-15","INCLINATION":"53.0542","MEAN_ELEMENT_THEORY":"SGP4","PERIAPSIS":"544.969","ELEMENT_SET_NO":"999","TIME_SYSTEM":"UTC","REV_AT_EPOCH":"360","PERIOD":"95.594","EPHEMERIS_TYPE":"0","MEAN_MOTION_DDOT":"0.0000000000000","NORAD_CAT_ID":"48580","CENTER_NAME":"EARTH","TLE_LINE1":"1 48580U 21041AD  21357.91667824  .00048128  00000-0  32302-2 0  9999","APOAPSIS":"549.632","RCS_SIZE":"LARGE","BSTAR":"0.00323020000000","OBJECT_NAME":"STARLINK-2234","SITE":"AFETR","TLE_LINE2":"2 48580  53.0542 165.4638 0003366  90.9679  62.1885 15.06371609  3604","ECCENTRICITY":"0.00033660","MEAN_MOTION_DOT":"0.00048128","DECAY_DATE":null,"CLASSIFICATION_TYPE":"U","COUNTRY_CODE":"US","EPOCH":"2021-12-23T22:00:00.999936","ARG_OF_PERICENTER":"90.9679","MEAN_MOTION":"15.06371609","FILE":"3249421","SEMIMAJOR_AXIS":"6925.436","MEAN_ANOMALY":"62.1885","RA_OF_ASC_NODE":"165.4638","REF_FRAME":"TEME"},{"EPHEMERIS_TYPE":"0","PERIOD":"95.594","REV_AT_EPOCH":"360","TIME_SYSTEM":"UTC","ELEMENT_SET_NO":"999","PERIAPSIS":"546.341","INCLINATION":"53.0621","MEAN_ELEMENT_THEORY":"SGP4","LAUNCH_DATE":"2021-05-15","OBJECT_TYPE":"PAYLOAD","OBJECT_ID":"2021-041AE","GP_ID":"192325478","OBJECT_NAME":"STARLINK-2235","BSTAR":"0.00285640000000","APOAPSIS":"548.259","RCS_SIZE":"LARGE","TLE_LINE1":"1 48581U 21041AE  21357.91667824  .00042489  00000-0  28564-2 0  9999","CENTER_NAME":"EARTH","NORAD_CAT_ID":"48581","MEAN_MOTION_DDOT":"0.0000000000000","CLASSIFICATION_TYPE":"U","DECAY_DATE":null,"MEAN_MOTION_DOT":"0.00042489","ECCENTRICITY":"0.00013850","TLE_LINE2":"2 48581  53.0621 155.4109 0001385  91.7773 276.3997 15.06371823  3609","SITE":"AFETR","RA_OF_ASC_NODE":"155.4109","REF_FRAME":"TEME","SEMIMAJOR_AXIS":"6925.435","MEAN_ANOMALY":"276.3997","FILE":"3249421","MEAN_MOTION":"15.06371823","ARG_OF_PERICENTER":"91.7773","EPOCH":"2021-12-23T22:00:00.999936","COUNTRY_CODE":"US"},{"COUNTRY_CODE":"US","EPOCH":"2021-12-23T22:00:00.999936","MEAN_MOTION":"15.06372100","FILE":"3249421","ARG_OF_PERICENTER":"83.5095","REF_FRAME":"TEME","RA_OF_ASC_NODE":"155.4566","MEAN_ANOMALY":"104.6902","SEMIMAJOR_AXIS":"6925.434","SITE":"AFETR","TLE_LINE2":"2 48582  53.0524 155.4566 0002163  83.5095 104.6902 15.06372100  3596","DECAY_DATE":null,"CLASSIFICATION_TYPE":"U","ECCENTRICITY":"0.00021630","MEAN_MOTION_DOT":"0.00042725","CENTER_NAME":"EARTH","MEAN_MOTION_DDOT":"0.0000000000000","NORAD_CAT_ID":"48582","RCS_SIZE":"LARGE","APOAPSIS":"548.797","TLE_LINE1":"1 48582U 21041AF  21357.91667824  .00042725  00000-0  28720-2 0  9997","OBJECT_NAME":"STARLINK-2236","BSTAR":"0.00287200000000","LAUNCH_DATE":"2021-05-15","GP_ID":"192325711","OBJECT_ID":"2021-041AF","OBJECT_TYPE":"PAYLOAD","PERIAPSIS":"545.801","MEAN_ELEMENT_THEORY":"SGP4","INCLINATION":"53.0524","ELEMENT_SET_NO":"999","PERIOD":"95.594","EPHEMERIS_TYPE":"0","TIME_SYSTEM":"UTC","REV_AT_EPOCH":"359"}];
